{
  "type": "FeatureCollection",
  "features": [
    {
      "type": "Feature",
      "properties": {
        "norad_id": 31431,
        "name": "FENGYUN 1C DEB",
        "group": "fengyun-1c-debris",
        "lat": -42.30286623467855,
        "lon": 47.52386232088007,
        "alt_km": 949.5523787059919,
        "timestamp": "2025-12-13T05:42:57.842066+00:00",
        "meta_object_name": "FENGYUN 1C DEB",
        "meta_object_id": "1999-025BTT",
        "meta_epoch": "2025-12-07T15:10:24.373056",
        "meta_mean_motion": 14.03044754,
        "meta_eccentricity": 0.01330657,
        "meta_inclination": 98.5386,
        "meta_ra_of_asc_node": 230.1202,
        "meta_arg_of_pericenter": 109.6865,
        "meta_mean_anomaly": 251.8715,
        "meta_ephemeris_type": 0,
        "meta_classification_type": "U",
        "meta_norad_cat_id": 31431,
        "meta_element_set_no": 999,
        "meta_rev_at_epoch": 94460,
        "meta_bstar": 0.0022798155,
        "meta_mean_motion_dot": 3.793e-05,
        "meta_mean_motion_ddot": 0,
        "tle_line1": "1 31431U 99025BTT 25341.63222654  .00003793  00000+0  22798-2 0  9993",
        "tle_line2": "2 31431  98.5386 230.1202 0133065 109.6865 251.8715 14.03044754944600"
      },
      "geometry": {
        "type": "Point",
        "coordinates": [
          47.52386232088007,
          -42.30286623467855
        ]
      }
    },
    {
      "type": "Feature",
      "properties": {
        "norad_id": 31433,
        "name": "FENGYUN 1C DEB",
        "group": "fengyun-1c-debris",
        "lat": -9.130186246804188,
        "lon": 69.32625523777604,
        "alt_km": 879.2221150610176,
        "timestamp": "2025-12-13T05:42:57.842076+00:00",
        "meta_object_name": "FENGYUN 1C DEB",
        "meta_object_id": "1999-025BTV",
        "meta_epoch": "2025-12-12T05:57:44.858304",
        "meta_mean_motion": 14.25421158,
        "meta_eccentricity": 0.0100309,
        "meta_inclination": 98.41,
        "meta_ra_of_asc_node": 249.7394,
        "meta_arg_of_pericenter": 30.7827,
        "meta_mean_anomaly": 121.9906,
        "meta_ephemeris_type": 0,
        "meta_classification_type": "U",
        "meta_norad_cat_id": 31433,
        "meta_element_set_no": 999,
        "meta_rev_at_epoch": 95545,
        "meta_bstar": 0.0039619554,
        "meta_mean_motion_dot": 9.825e-05,
        "meta_mean_motion_ddot": 0,
        "tle_line1": "1 31433U 99025BTV 25346.24843586  .00009825  00000+0  39620-2 0  9994",
        "tle_line2": "2 31433  98.4100 249.7394 0100309  30.7827 121.9906 14.25421158955455"
      },
      "geometry": {
        "type": "Point",
        "coordinates": [
          69.32625523777604,
          -9.130186246804188
        ]
      }
    },
    {
      "type": "Feature",
      "properties": {
        "norad_id": 31435,
        "name": "FENGYUN 1C DEB",
        "group": "fengyun-1c-debris",
        "lat": -42.50776355576346,
        "lon": 167.49283248843804,
        "alt_km": 799.3696023822058,
        "timestamp": "2025-12-13T05:42:57.842088+00:00",
        "meta_object_name": "FENGYUN 1C DEB",
        "meta_object_id": "1999-025BTX",
        "meta_epoch": "2025-12-11T22:31:38.096832",
        "meta_mean_motion": 14.53433535,
        "meta_eccentricity": 0.0148981,
        "meta_inclination": 99.0366,
        "meta_ra_of_asc_node": 157.7043,
        "meta_arg_of_pericenter": 182.4231,
        "meta_mean_anomaly": 177.6259,
        "meta_ephemeris_type": 0,
        "meta_classification_type": "U",
        "meta_norad_cat_id": 31435,
        "meta_element_set_no": 999,
        "meta_rev_at_epoch": 98361,
        "meta_bstar": 0.0004342,
        "meta_mean_motion_dot": 2.034e-05,
        "meta_mean_motion_ddot": 0,
        "tle_line1": "1 31435U 99025BTX 25345.93863538  .00002034  00000+0  43420-3 0  9999",
        "tle_line2": "2 31435  99.0366 157.7043 0148981 182.4231 177.6259 14.53433535983610"
      },
      "geometry": {
        "type": "Point",
        "coordinates": [
          167.49283248843804,
          -42.50776355576346
        ]
      }
    },
    {
      "type": "Feature",
      "properties": {
        "norad_id": 31436,
        "name": "FENGYUN 1C DEB",
        "group": "fengyun-1c-debris",
        "lat": -18.791518065191564,
        "lon": -156.70164196151848,
        "alt_km": 596.9324261124129,
        "timestamp": "2025-12-13T05:42:57.842099+00:00",
        "meta_object_name": "FENGYUN 1C DEB",
        "meta_object_id": "1999-025BTY",
        "meta_epoch": "2025-12-08T13:28:51.661920",
        "meta_mean_motion": 14.93022785,
        "meta_eccentricity": 0.0044316,
        "meta_inclination": 98.882,
        "meta_ra_of_asc_node": 194.9716,
        "meta_arg_of_pericenter": 256.2521,
        "meta_mean_anomaly": 159.099,
        "meta_ephemeris_type": 0,
        "meta_classification_type": "U",
        "meta_norad_cat_id": 31436,
        "meta_element_set_no": 999,
        "meta_rev_at_epoch": 96814,
        "meta_bstar": 0.005826,
        "meta_mean_motion_dot": 0.00062201,
        "meta_mean_motion_ddot": 0,
        "tle_line1": "1 31436U 99025BTY 25342.56170905  .00062201  00000+0  58260-2 0  9994",
        "tle_line2": "2 31436  98.8820 194.9716 0044316 256.2521 159.0990 14.93022785968144"
      },
      "geometry": {
        "type": "Point",
        "coordinates": [
          -156.70164196151848,
          -18.791518065191564
        ]
      }
    },
    {
      "type": "Feature",
      "properties": {
        "norad_id": 31437,
        "name": "FENGYUN 1C DEB",
        "group": "fengyun-1c-debris",
        "lat": 52.28627071800233,
        "lon": -100.03754255155786,
        "alt_km": 750.6137968555131,
        "timestamp": "2025-12-13T05:42:57.842109+00:00",
        "meta_object_name": "FENGYUN 1C DEB",
        "meta_object_id": "1999-025BTZ",
        "meta_epoch": "2025-12-12T04:09:29.717568",
        "meta_mean_motion": 14.42498269,
        "meta_eccentricity": 0.00154684,
        "meta_inclination": 98.8623,
        "meta_ra_of_asc_node": 67.216,
        "meta_arg_of_pericenter": 248.9781,
        "meta_mean_anomaly": 110.9753,
        "meta_ephemeris_type": 0,
        "meta_classification_type": "U",
        "meta_norad_cat_id": 31437,
        "meta_element_set_no": 999,
        "meta_rev_at_epoch": 96502,
        "meta_bstar": 0.0034615208,
        "meta_mean_motion_dot": 0.00011459,
        "meta_mean_motion_ddot": 0,
        "tle_line1": "1 31437U 99025BTZ 25346.17326062  .00011459  00000+0  34615-2 0  9990",
        "tle_line2": "2 31437  98.8623  67.2160 0015468 248.9781 110.9753 14.42498269965028"
      },
      "geometry": {
        "type": "Point",
        "coordinates": [
          -100.03754255155786,
          52.28627071800233
        ]
      }
    },
    {
      "type": "Feature",
      "properties": {
        "norad_id": 31439,
        "name": "FENGYUN 1C DEB",
        "group": "fengyun-1c-debris",
        "lat": -10.434411769997268,
        "lon": 171.58864103991908,
        "alt_km": 825.951191820458,
        "timestamp": "2025-12-13T05:42:57.842120+00:00",
        "meta_object_name": "FENGYUN 1C DEB",
        "meta_object_id": "1999-025BUB",
        "meta_epoch": "2025-12-11T06:27:20.803392",
        "meta_mean_motion": 13.95576352,
        "meta_eccentricity": 0.01378211,
        "meta_inclination": 98.917,
        "meta_ra_of_asc_node": 351.3398,
        "meta_arg_of_pericenter": 165.839,
        "meta_mean_anomaly": 215.9218,
        "meta_ephemeris_type": 0,
        "meta_classification_type": "U",
        "meta_norad_cat_id": 31439,
        "meta_element_set_no": 999,
        "meta_rev_at_epoch": 63212,
        "meta_bstar": 0.00082710454,
        "meta_mean_motion_dot": 1.176e-05,
        "meta_mean_motion_ddot": 0,
        "tle_line1": "1 31439U 99025BUB 25345.26899078  .00001176  00000+0  82710-3 0  9998",
        "tle_line2": "2 31439  98.9170 351.3398 0137821 165.8390 215.9218 13.95576352632120"
      },
      "geometry": {
        "type": "Point",
        "coordinates": [
          171.58864103991908,
          -10.434411769997268
        ]
      }
    },
    {
      "type": "Feature",
      "properties": {
        "norad_id": 31440,
        "name": "FENGYUN 1C DEB",
        "group": "fengyun-1c-debris",
        "lat": -23.575929566066403,
        "lon": -108.60726044604783,
        "alt_km": 793.9693310452749,
        "timestamp": "2025-12-13T05:42:57.842131+00:00",
        "meta_object_name": "FENGYUN 1C DEB",
        "meta_object_id": "1999-025BUC",
        "meta_epoch": "2025-12-12T05:22:06.119616",
        "meta_mean_motion": 14.36690933,
        "meta_eccentricity": 0.00369109,
        "meta_inclination": 98.7452,
        "meta_ra_of_asc_node": 74.2143,
        "meta_arg_of_pericenter": 343.4107,
        "meta_mean_anomaly": 16.5868,
        "meta_ephemeris_type": 0,
        "meta_classification_type": "U",
        "meta_norad_cat_id": 31440,
        "meta_element_set_no": 999,
        "meta_rev_at_epoch": 96318,
        "meta_bstar": 0.003015431,
        "meta_mean_motion_dot": 8.918e-05,
        "meta_mean_motion_ddot": 0,
        "tle_line1": "1 31440U 99025BUC 25346.22368194  .00008918  00000+0  30154-2 0  9992",
        "tle_line2": "2 31440  98.7452  74.2143 0036910 343.4107  16.5868 14.36690933963186"
      },
      "geometry": {
        "type": "Point",
        "coordinates": [
          -108.60726044604783,
          -23.575929566066403
        ]
      }
    }
  ]
}